{
    "links": {
        "self": "http://www.neowsapp.com/rest/v1/neo/3873157?api_key=iIulBulltgU6a56xZRHN4H3l9WmuAYTsLGpBGhQ2"
    },
    "id": "3873157",
    "neo_reference_id": "3873157",
    "name": "(2019 TC)",
    "designation": "2019 TC",
    "nasa_jpl_url": "http://ssd.jpl.nasa.gov/sbdb.cgi?sstr=3873157",
    "absolute_magnitude_h": 26.4,
    "estimated_diameter": {
        "kilometers": {
            "estimated_diameter_min": 0.0139493823,
            "estimated_diameter_max": 0.0311917671
        },
        "meters": {
            "estimated_diameter_min": 13.9493822934,
            "estimated_diameter_max": 31.1917670523
        },
        "miles": {
            "estimated_diameter_min": 0.0086677416,
            "estimated_diameter_max": 0.0193816595
        },
        "feet": {
            "estimated_diameter_min": 45.7656914036,
            "estimated_diameter_max": 102.3351970157
        }
    },
    "is_potentially_hazardous_asteroid": false,
    "close_approach_data": [
        {
            "close_approach_date": "2019-09-29",
            "close_approach_date_full": "2019-Sep-29 22:39",
            "epoch_date_close_approach": 1569796740000,
            "relative_velocity": {
                "kilometers_per_second": "12.3048432308",
                "kilometers_per_hour": "44297.4356310474",
                "miles_per_hour": "27524.7038230805"
            },
            "miss_distance": {
                "astronomical": "0.0370313899",
                "lunar": "14.4052106711",
                "kilometers": "5539817.052179513",
                "miles": "3442282.6954547594"
            },
            "orbiting_body": "Earth"
        }
    ],
    "orbital_data": {
        "orbit_id": "5",
        "orbit_determination_date": "2019-10-11 06:27:57",
        "first_observation_date": "2019-10-01",
        "last_observation_date": "2019-10-09",
        "data_arc_in_days": 8,
        "observations_used": 28,
        "orbit_uncertainty": "8",
        "minimum_orbit_intersection": ".0370207",
        "jupiter_tisserand_invariant": "2.978",
        "epoch_osculation": "2458761.5",
        "eccentricity": ".6244660264752168",
        "semi_major_axis": "2.756041989103365",
        "inclination": "16.44620883745925",
        "ascending_node_longitude": "7.71721292440216",
        "orbital_period": "1671.195169632128",
        "perihelion_distance": "1.034987399369134",
        "perihelion_argument": "351.4660004095745",
        "aphelion_distance": "4.477096578837596",
        "perihelion_time": "2458750.586255263114",
        "mean_anomaly": "2.350981008486172",
        "mean_motion": ".2154146963452779",
        "equinox": "J2000",
        "orbit_class": {
            "orbit_class_type": "AMO",
            "orbit_class_description": "Near-Earth asteroid orbits similar to that of 1221 Amor",
            "orbit_class_range": "1.017 AU < q (perihelion) < 1.3 AU"
        }
    },
    "is_sentry_object": false
}